QIANFAN-73              
1 63159U 25046A   25361.41826339  .00000177  00000+0  25577-3 0  9997
2 63159  88.9775 318.5037 0016989  81.1722 279.1352 13.50980958 49393
QIANFAN-74              
1 63160U 25046B   25361.47572784  .00000199  00000+0  28992-3 0  9995
2 63160  88.9775 318.3866 0002004  72.8027 287.3344 13.50977864 49463
QIANFAN-75              
1 63161U 25046C   25361.46298852  .00000222  00000+0  32518-3 0  9992
2 63161  88.9777 318.6217 0018121  83.6191 276.7023 13.50983423 49338
QIANFAN-76              
1 63162U 25046D   25361.45963617  .00000163  00000+0  23282-3 0  9992
2 63162  88.9775 318.6026 0015676  84.0112 276.2826 13.50983225 49342
QIANFAN-77              
1 63163U 25046E   25361.45034229  .00000511  00000+0  36248-3 0  9994
2 63163  88.9777 316.4900 0016520  40.2377 320.0019 13.96099633 50501
QIANFAN-78              
1 63164U 25046F   25361.50052911  .00000203  00000+0  29468-3 0  9993
2 63164  88.9775 318.4622 0017036  85.9922 274.3176 13.50981500 49425
QIANFAN-79              
1 63165U 25046G   25361.45510737  .00000205  00000+0  29850-3 0  9990
2 63165  88.9779 318.5750 0016737  84.5374 275.7686 13.50983273 49369
QIANFAN-80              
1 63166U 25046H   25361.47164887  .00000225  00000+0  32937-3 0  9996
2 63166  88.9777 318.2798 0015684  88.1461 272.1486 13.50981304 49524
